IRIDIUM 65 [+]          
1 25288U 98021D   16078.50471812  .00000083  00000-0  22551-4 0  9995
2 25288  86.3947  54.3506 0002358  83.3117 276.8347 14.34217177939700
IRIDIUM 66 [+]          
1 25289U 98021E   16078.53791245  .00000085  00000-0  23194-4 0  9990
2 25289  86.3946  54.2439 0002345  86.1802  52.4825 14.34216858939706
IRIDIUM 67 [+]          
1 25290U 98021F   16078.51740143  .00000074  00000-0  19520-4 0  9997
2 25290  86.3948  54.3821 0002276  86.3852 273.7604 14.34217256939713
IRIDIUM 68 [+]          
1 25291U 98021G   16078.52374857  .00000076  00000-0  20172-4 0  9991
2 25291  86.3950  54.4896 0002349  87.5481 272.5984 14.34217080939681
IRIDIUM 69 [-]          
1 25319U 98026A   16078.52689286  .00000272  00000-0  82546-4 0  9993
2 25319  86.3951  77.4159 0002253  37.6271 322.5084 14.38567874937528
IRIDIUM 71 [-]          
1 25320U 98026B   16078.50924141  .00000252  00000-0  75113-4 0  9995
2 25320  86.3938  73.5311 0003890  66.3812 293.7794 14.38990635937937
IRIDIUM 70 [+]          
1 25342U 98032A   16078.50282916  .00000070  00000-0  18053-4 0  9991
2 25342  86.3953  54.7186 0002387  85.7664  35.5524 14.34217210933788
IRIDIUM 72 [+]          
1 25343U 98032B   16078.48895926  .00000077  00000-0  20286-4 0  9998
2 25343  86.3948  54.3658 0002297  85.9360  29.2476 14.34217006933787
IRIDIUM 73 [-]          
1 25344U 98032C   16078.49649562  .00000317  00000-0  78455-4 0  9991
2 25344  86.4442  35.5005 0002680 100.6218 259.5288 14.48910519941566
IRIDIUM 74 [S]          
1 25345U 98032D   16078.55430425  .00000103  00000-0  24744-4 0  9990
2 25345  86.4444  54.6723 0002805  75.0324  54.6672 14.42947135937047
IRIDIUM 75 [+]          
1 25346U 98032E   16078.49579786  .00000073  00000-0  18929-4 0  9992
2 25346  86.3951  54.5993 0002279  86.3906  31.3622 14.34217135934353
IRIDIUM 3 [+]           
1 25431U 98048A   16078.54896166  .00000126  00000-0  37785-4 0  9994
2 25431  86.3921  86.1959 0002408  87.7256  24.3799 14.34216553920305
IRIDIUM 76 [+]          
1 25432U 98048B   16078.56842573  .00000052  00000-0  11381-4 0  9992
2 25432  86.3918  85.9567 0002389  92.1217  22.6987 14.34217050920290
IRIDIUM 82 [+]          
1 25467U 98051A   16078.51557519  .00000282  00000-0  93645-4 0  9990
2 25467  86.4009 212.5643 0001927  90.1459 269.9958 14.34217945921306
IRIDIUM 81 [+]          
1 25468U 98051B   16078.50919057  .00000237  00000-0  77630-4 0  9995
2 25468  86.3993 212.2082 0002005  96.9236 263.2188 14.34216898917524
IRIDIUM 80 [+]          
1 25469U 98051C   16078.42634074  .00000227  00000-0  74101-4 0  9999
2 25469  86.3995 212.5085 0002057 100.4053 290.4154 14.34216614917518
IRIDIUM 77 [+]          
1 25471U 98051E   16078.57718071  .00000218  00000-0  70917-4 0  9999
2 25471  86.3987 212.0605 0002241  96.9889 319.4263 14.34216847922737
IRIDIUM 2 [-]           
1 25527U 98066A   16078.34217393  .00003154  00000-0  16770-3 0  9991
2 25527  85.5301 300.9709 0008634 337.7703  22.3161 15.14854184948821
IRIDIUM 86 [+]          
1 25528U 98066B   16078.38521381  .00000107  00000-0  31105-4 0  9996
2 25528  86.4014 180.3552 0002330  94.4313 265.7149 14.34210572914033
IRIDIUM 84 [+]          
1 25530U 98066D   16078.41692584  .00000221  00000-0  72003-4 0  9996
2 25530  86.4014 180.4989 0002143 100.2804 259.8634 14.34210803911671
IRIDIUM 83 [+]          
1 25531U 98066E   16078.44863934  .00000265  00000-0  87523-4 0  9990
2 25531  86.4018 180.5922 0002150  99.5360 260.6079 14.34210799909033
IRIDIUM 20 [+]          
1 25577U 98074A   16078.50813733  .00000052  00000-0  11586-4 0  9998
2 25577  86.3917  85.9096 0002305  88.9459 271.2001 14.34216975903122
IRIDIUM 11 [+]          
1 25578U 98074B   16078.54252116  .00000047  00000-0  95683-5 0  9990
2 25578  86.3916  86.1015 0002226  87.1786  24.7988 14.34217499912095
IRIDIUM 14 [S]          
1 25777U 99032A   16078.38393046  .00000072  00000-0  18555-4 0  9996
2 25777  86.3950  54.4833 0002387  84.6583  77.7055 14.34216873889344
IRIDIUM 21 [+]          
1 25778U 99032B   16078.46031778  .00000086  00000-0  23691-4 0  9999
2 25778  86.3949  54.4757 0002255  90.4270 269.7184 14.34217366882796
IRIDIUM 91 [+]          
1 27372U 02005A   16078.59053064  .00000066  00000-0  16437-4 0  9999
2 27372  86.3958 118.2744 0002025  91.1152  21.8698 14.34218419746320
IRIDIUM 90 [S]          
1 27373U 02005B   16078.51458990  .00000015  00000-0 -15933-5 0  9995
2 27373  86.4521 180.5300 0002439  99.3944 260.7532 14.42950880745645
IRIDIUM 94 [S]          
1 27374U 02005C   16078.56202031  .00000012  00000-0 -26721-5 0  9998
2 27374  86.3917  86.2140 0003163  94.2850  20.1790 14.34216087750648
IRIDIUM 95 [+]          
1 27375U 02005D   16078.53693888  .00000074  00000-0  19423-4 0  9997
2 27375  86.3957 118.0796 0002362  94.2934 265.8532 14.34219854745604
IRIDIUM 96 [S]          
1 27376U 02005E   16078.51501297  .00000259  00000-0  85238-4 0  9990
2 27376  86.4025 149.5642 0002805 129.0781 231.0664 14.34219009750801
IRIDIUM 97 [+]          
1 27450U 02031A   16078.55307047  .00000222  00000-0  72034-4 0  9993
2 27450  86.3993 149.3923 0002071  96.9666 263.1765 14.34219229724922
IRIDIUM 98 [S]          
1 27451U 02031B   16078.33725815  .00000240  00000-0  78565-4 0  9992
2 27451  86.3985 212.7312 0001931 100.2932 289.0764 14.34215091725964
